[{"OBJECT_NAME":"YAOGAN-30 10C","OBJECT_ID":"2021-055D","EPOCH":"2026-03-09T22:27:53.002368","MEAN_MOTION":15.02142069,"ECCENTRICITY":0.0003131,"INCLINATION":34.9969,"RA_OF_ASC_NODE":36.2181,"ARG_OF_PERICENTER":356.3915,"MEAN_ANOMALY":3.677,"EPHEMERIS_TYPE":0,"CLASSIFICATION_TYPE":"U","NORAD_CAT_ID":48863,"ELEMENT_SET_NO":999,"REV_AT_EPOCH":25795,"BSTAR":0.00033693874,"MEAN_MOTION_DOT":4.496e-5,"MEAN_MOTION_DDOT":0},{"OBJECT_NAME":"STARLINK-5830","OBJECT_ID":"2023-088T","EPOCH":"2026-03-09T03:33:42.535008","MEAN_MOTION":15.02531614,"ECCENTRICITY":0.00013745,"INCLINATION":43.0036,"RA_OF_ASC_NODE":110.7944,"ARG_OF_PERICENTER":273.4265,"MEAN_ANOMALY":86.6421,"EPHEMERIS_TYPE":0,"CLASSIFICATION_TYPE":"U","NORAD_CAT_ID":57065,"ELEMENT_SET_NO":999,"REV_AT_EPOCH":14930,"BSTAR":1.5973487e-5,"MEAN_MOTION_DOT":1.2e-7,"MEAN_MOTION_DDOT":0}]
